[{"OBJECT_NAME":"TEVEL2-8","OBJECT_ID":"2025-052AF","EPOCH":"2026-03-05T16:10:52.917312","MEAN_MOTION":15.28213521,"ECCENTRICITY":0.0007692,"INCLINATION":97.4062,"RA_OF_ASC_NODE":320.3214,"ARG_OF_PERICENTER":136.886,"MEAN_ANOMALY":223.2983,"EPHEMERIS_TYPE":0,"CLASSIFICATION_TYPE":"U","NORAD_CAT_ID":63239,"ELEMENT_SET_NO":999,"REV_AT_EPOCH":5419,"BSTAR":0.00078135,"MEAN_MOTION_DOT":0.00021464,"MEAN_MOTION_DDOT":0},{"OBJECT_NAME":"HADES-ICM","OBJECT_ID":"2025-052BN","EPOCH":"2026-03-05T15:31:17.877216","MEAN_MOTION":15.55555606,"ECCENTRICITY":0.0008699,"INCLINATION":97.3958,"RA_OF_ASC_NODE":324.9512,"ARG_OF_PERICENTER":119.4028,"MEAN_ANOMALY":240.8096,"EPHEMERIS_TYPE":0,"CLASSIFICATION_TYPE":"U","NORAD_CAT_ID":63492,"ELEMENT_SET_NO":999,"REV_AT_EPOCH":5451,"BSTAR":0.0020358,"MEAN_MOTION_DOT":0.00141647,"MEAN_MOTION_DDOT":0}]
