TEVEL2-8                
1 63239U 25052AF  26064.67422358  .00021464  00000+0  78135-3 0  9995
2 63239  97.4062 320.3214 0007692 136.8860 223.2983 15.28213521 54192
HADES-ICM               
1 63492U 25052BN  26064.64673469  .00141647  00000+0  20358-2 0  9993
2 63492  97.3958 324.9512 0008699 119.4028 240.8096 15.55555606 54517
